      2.10          N: GNSS NAV DATA                        RINEX VERSION / TYPE
fic2rin                                 05/21/2024 00:59:02 PGM / RUN BY / DATE
                                                            END OF HEADER
5  24  5 20  1 59 44.0 -.173321459442D-03 -.136424205266D-11  .000000000000D+00
     .110000000000D+02  .109062500000D+02  .429339312277D-08  .255516800430D+01
     .476837158203D-06  .583948404528D-02  .995583832264D-05  .515361630249D+04
     .935840000000D+05  .391155481339D-07 -.313607626454D+01 -.614672899246D-07
     .971603423594D+00  .194718750000D+03  .124900714607D+01 -.773567936495D-08
     .470019578202D-09  .100000000000D+01  .231500000000D+04  .000000000000D+00
     .240000000000D+01  .000000000000D+00 -.107102096081D-07  .110000000000D+02
     .864000000000D+05  .400000000000D+01
25 24  5 20 20  0  0.0  .496057793498D-03  .682121026330D-12  .000000000000D+00
     .380000000000D+02  .921250000000D+02  .447232914760D-08  .174865302804D+01
     .471621751785D-05  .117306193570D-01  .921823084354D-05  .515357622337D+04
     .158400000000D+06 -.225380063057D-06  .351096506179D-01 -.204890966415D-06
     .950888927838D+00  .194687500000D+03  .108978945189D+01 -.808033657845D-08
     .235009789101D-09  .100000000000D+01  .231500000000D+04  .000000000000D+00
     .240000000000D+01  .000000000000D+00  .512227416039D-08  .380000000000D+02
     .151200000000D+06  .400000000000D+01
29 24  5 20 20  0  0.0 -.597666949034D-03  .147792889038D-11  .000000000000D+00
     .930000000000D+02  .790625000000D+01  .462733560424D-08 -.904076356832D+00
     .128522515297D-06  .291202892549D-02  .199861824512D-05  .515359140587D+04
     .158400000000D+06  .521540641785D-07  .117553471148D+01 -.242143869400D-07
     .971287253350D+00  .346375000000D+03  .253396105374D+01 -.839749264642D-08
     .127505311108D-09  .100000000000D+01  .231500000000D+04  .000000000000D+00
     .240000000000D+01  .000000000000D+00 -.977888703346D-08  .930000000000D+02
     .151200000000D+06  .400000000000D+01
30 24  5 20 20  0  0.0 -.387322623283D-03  .591171556152D-11  .000000000000D+00
     .115000000000D+03 -.265937500000D+02  .499056501992D-08  .234856888195D+01
    -.147335231304D-05  .713974633254D-02  .993721187115D-05  .515364264679D+04
     .158400000000D+06 -.745058059692D-07 -.992984881257D+00 -.143423676491D-06
     .935254001106D+00  .174218750000D+03 -.246620023461D+01 -.815283959849D-08
    -.534665128092D-09  .100000000000D+01  .231500000000D+04  .000000000000D+00
     .240000000000D+01  .000000000000D+00  .419095158577D-08  .115000000000D+03
     .151200000000D+06  .400000000000D+01
19 24  5 20 20  0  0.0  .484836753458D-03  .534328137292D-11  .000000000000D+00
     .870000000000D+02  .456250000000D+01  .477841332581D-08  .107840546081D+01
     .111758708954D-06  .983794848435D-02  .126473605633D-05  .515370509148D+04
     .158400000000D+06  .175088644028D-06  .120488610880D+01  .558793544769D-08
     .968038574578D+00  .358062500000D+03  .253805584922D+01 -.845213777975D-08
     .146434671020D-10  .100000000000D+01  .231500000000D+04  .000000000000D+00
     .240000000000D+01  .000000000000D+00 -.153668224812D-07  .870000000000D+02
     .151200000000D+06  .400000000000D+01
20 24  5 20 20  0  0.0  .375872477889D-03 -.136424205266D-11  .000000000000D+00
     .190000000000D+03 -.286875000000D+02  .456411868529D-08 -.248062410802D+01
    -.127777457237D-05  .360765086953D-02  .106170773506D-04  .515379306221D+04
     .158400000000D+06  .894069671631D-07  .301797155255D+01 -.139698386192D-06
     .954076816512D+00  .167437500000D+03 -.259126689767D+01 -.792640159501D-08
     .255367779950D-09  .100000000000D+01  .231500000000D+04  .000000000000D+00
     .240000000000D+01  .000000000000D+00 -.838190317154D-08  .190000000000D+03
     .151200000000D+06  .400000000000D+01
18 24  5 20 20  0  0.0 -.613541807979D-03 -.557065504836D-11  .000000000000D+00
     .920000000000D+02 -.943437500000D+02  .419053169532D-08 -.289174369826D+01
    -.485777854919D-05  .409194245003D-02  .762380659580D-05  .515361404228D+04
     .158400000000D+06 -.856816768646D-07  .216595769841D+01 -.149011611938D-07
     .974491019074D+00  .242968750000D+03 -.305433777373D+01 -.785925594098D-08
    -.218580533328D-09  .100000000000D+01  .231500000000D+04  .000000000000D+00
     .240000000000D+01  .000000000000D+00 -.838190317154D-08  .604000000000D+03
     .151200000000D+06  .400000000000D+01
28 24  5 20 20  0  0.0 -.252532307059D-03 -.164845914696D-10  .000000000000D+00
     .145000000000D+03 -.190625000000D+02  .443232748137D-08  .110806472631D+01
    -.101700425148D-05  .344205647707D-03  .912696123123D-05  .515365100479D+04
     .158400000000D+06  .596046447754D-07 -.102688378137D+01  .149011611938D-07
     .961182342748D+00  .205562500000D+03  .169608645059D+01 -.794140221985D-08
    -.478234206089D-09  .100000000000D+01  .231500000000D+04  .000000000000D+00
     .240000000000D+01  .000000000000D+00 -.931322574615D-08  .657000000000D+03
     .151200000000D+06  .400000000000D+01
23 24  5 20 20  0  0.0  .230312347412D-03  .943600753089D-11  .000000000000D+00
     .118000000000D+03 -.628125000000D+01  .399516641472D-08  .219329962122D+01
    -.273808836937D-06  .415587669704D-02  .105351209641D-04  .515371832466D+04
     .158400000000D+06 -.124797224998D-06 -.311685171281D+01  .782310962677D-07
     .979475501349D+00  .188500000000D+03 -.296374278417D+01 -.767674833881D-08
     .321084803042D-09  .100000000000D+01  .231500000000D+04  .000000000000D+00
     .240000000000D+01  .000000000000D+00 -.838190317154D-08  .886000000000D+03
     .151200000000D+06  .400000000000D+01
8  24  5 20 19 59 44.0  .188643578440D-03  .198951966013D-10  .000000000000D+00
     .430000000000D+02  .217187500000D+02  .503913847177D-08 -.933691136464D+00
     .122934579849D-05  .946157460567D-02  .137090682983D-05  .515363127136D+04
     .158384000000D+06  .150874257088D-06  .106587038141D+01 -.726431608200D-07
     .953174345275D+00  .343968750000D+03  .362680188503D+00 -.863893127473D-08
     .184293390845D-09  .100000000000D+01  .231500000000D+04  .000000000000D+00
     .240000000000D+01  .000000000000D+00  .465661287308D-08  .430000000000D+02
     .152520000000D+06  .400000000000D+01
7  24  5 20 19 59 44.0 -.133072491735D-03 -.807176547823D-11  .000000000000D+00
     .900000000000D+02 -.286875000000D+02  .452375986133D-08  .250112229671D+01
    -.162795186043D-05  .185341602191D-01  .100508332253D-04  .515364080811D+04
     .158384000000D+06  .130385160446D-06 -.993702395762D+00 -.292435288429D-06
     .950111677999D+00  .176437500000D+03 -.212258473015D+01 -.770460664208D-08
    -.509306928964D-09  .100000000000D+01  .231500000000D+04  .000000000000D+00
     .240000000000D+01  .000000000000D+00 -.111758708954D-07  .900000000000D+02
     .154200000000D+06  .400000000000D+01
17 24  5 20 19 59 44.0  .704531092197D-03 -.363797880709D-11  .000000000000D+00
     .174000000000D+03  .105937500000D+02  .485805950054D-08 -.922466493735D+00
     .569969415665D-06  .134009118192D-01  .213831663132D-05  .515372646141D+04
     .158384000000D+06 -.242143869400D-06  .116053916479D+01  .167638063431D-07
     .968874721498D+00  .349406250000D+03 -.132135448109D+01 -.867036115534D-08
     .160006664920D-09  .100000000000D+01  .231500000000D+04  .000000000000D+00
     .240000000000D+01  .000000000000D+00 -.111758708954D-07  .174000000000D+03
     .157560000000D+06  .400000000000D+01
7  24  5 20 21 59 44.0 -.133130699396D-03 -.807176547823D-11  .000000000000D+00
     .910000000000D+02 -.206250000000D+02  .448554398377D-08 -.273189039690D+01
    -.123865902424D-05  .185333163245D-01  .980310142040D-05  .515364243317D+04
     .165584000000D+06  .225380063057D-06 -.993757841820D+00 -.171363353729D-06
     .950108066055D+00  .180812500000D+03 -.212255742917D+01 -.769353475232D-08
    -.465733685392D-09  .100000000000D+01  .231500000000D+04  .000000000000D+00
     .240000000000D+01  .000000000000D+00 -.111758708954D-07  .910000000000D+02
     .158400000000D+06  .400000000000D+01
8  24  5 20 21 59 44.0  .188787002116D-03  .198951966013D-10  .000000000000D+00
     .490000000000D+02  .244062500000D+02  .500878006437D-08  .116487056679D+00
     .141002237797D-05  .946127087809D-02  .175647437572D-05  .515363051414D+04
     .165584000000D+06  .137835741043D-06  .106580806842D+01  .540167093277D-07
     .953175401501D+00  .341281250000D+03  .362712893499D+00 -.867428989042D-08
     .153934983439D-09  .100000000000D+01  .231500000000D+04  .000000000000D+00
     .240000000000D+01  .000000000000D+00  .465661287308D-08  .490000000000D+02
     .158400000000D+06  .400000000000D+01
